CCSDS_OMM_VERS = 2.0
CREATION_DATE  = 
ORIGINATOR     = 

OBJECT_NAME    = STARLINK-36864
OBJECT_ID      = 2026-041F
CENTER_NAME    = EARTH
REF_FRAME      = TEME
TIME_SYSTEM    = UTC
MEAN_ELEMENT_THEORY = SGP/SGP4

EPOCH          = 2026-03-26T16:55:40.095552
MEAN_MOTION    = 15.75403992
ECCENTRICITY   = .00001798
INCLINATION    = 53.1598
RA_OF_ASC_NODE = 337.3106
ARG_OF_PERICENTER = 115.1919
MEAN_ANOMALY   = 244.9120

EPHEMERIS_TYPE = 0
CLASSIFICATION_TYPE = U
NORAD_CAT_ID   = 68045
ELEMENT_SET_NO = 999
REV_AT_EPOCH   = 390
BSTAR          = .24163097E-2
MEAN_MOTION_DOT = .390198E-2
MEAN_MOTION_DDOT = 0

CCSDS_OMM_VERS = 2.0
CREATION_DATE  = 
ORIGINATOR     = 

OBJECT_NAME    = STARLINK-36321
OBJECT_ID      = 2026-041G
CENTER_NAME    = EARTH
REF_FRAME      = TEME
TIME_SYSTEM    = UTC
MEAN_ELEMENT_THEORY = SGP/SGP4

EPOCH          = 2026-03-26T22:21:53.721792
MEAN_MOTION    = 15.75338544
ECCENTRICITY   = .00006859
INCLINATION    = 53.1590
RA_OF_ASC_NODE = 335.8676
ARG_OF_PERICENTER = 60.9247
MEAN_ANOMALY   = 299.1842

EPHEMERIS_TYPE = 0
CLASSIFICATION_TYPE = U
NORAD_CAT_ID   = 68046
ELEMENT_SET_NO = 999
REV_AT_EPOCH   = 394
BSTAR          = .15376883E-2
MEAN_MOTION_DOT = .243024E-2
MEAN_MOTION_DDOT = 0

CCSDS_OMM_VERS = 2.0
CREATION_DATE  = 
ORIGINATOR     = 

OBJECT_NAME    = STARLINK-36181
OBJECT_ID      = 2026-041H
CENTER_NAME    = EARTH
REF_FRAME      = TEME
TIME_SYSTEM    = UTC
MEAN_ELEMENT_THEORY = SGP/SGP4

EPOCH          = 2026-03-26T21:58:36.899040
MEAN_MOTION    = 15.80760840
ECCENTRICITY   = .00030365
INCLINATION    = 53.1590
RA_OF_ASC_NODE = 335.7601
ARG_OF_PERICENTER = 333.6995
MEAN_ANOMALY   = 26.3873

EPHEMERIS_TYPE = 0
CLASSIFICATION_TYPE = U
NORAD_CAT_ID   = 68047
ELEMENT_SET_NO = 999
REV_AT_EPOCH   = 394
BSTAR          = .11808345E-2
MEAN_MOTION_DOT = .23768E-2
MEAN_MOTION_DDOT = 0

CCSDS_OMM_VERS = 2.0
CREATION_DATE  = 
ORIGINATOR     = 

OBJECT_NAME    = STARLINK-36318
OBJECT_ID      = 2026-041J
CENTER_NAME    = EARTH
REF_FRAME      = TEME
TIME_SYSTEM    = UTC
MEAN_ELEMENT_THEORY = SGP/SGP4

EPOCH          = 2026-03-26T22:55:02.992800
MEAN_MOTION    = 15.75302675
ECCENTRICITY   = .00009449
INCLINATION    = 53.1605
RA_OF_ASC_NODE = 336.0220
ARG_OF_PERICENTER = 47.1628
MEAN_ANOMALY   = 312.9471

EPHEMERIS_TYPE = 0
CLASSIFICATION_TYPE = U
NORAD_CAT_ID   = 68048
ELEMENT_SET_NO = 999
REV_AT_EPOCH   = 394
BSTAR          = .10931405E-2
MEAN_MOTION_DOT = .170825E-2
MEAN_MOTION_DDOT = 0

CCSDS_OMM_VERS = 2.0
CREATION_DATE  = 
ORIGINATOR     = 

OBJECT_NAME    = STARLINK-36885
OBJECT_ID      = 2026-041K
CENTER_NAME    = EARTH
REF_FRAME      = TEME
TIME_SYSTEM    = UTC
MEAN_ELEMENT_THEORY = SGP/SGP4

EPOCH          = 2026-03-26T22:54:34.688160
MEAN_MOTION    = 15.75240545
ECCENTRICITY   = .0001628
INCLINATION    = 53.1612
RA_OF_ASC_NODE = 336.0172
ARG_OF_PERICENTER = 57.6150
MEAN_ANOMALY   = 302.5028

EPHEMERIS_TYPE = 0
CLASSIFICATION_TYPE = U
NORAD_CAT_ID   = 68049
ELEMENT_SET_NO = 999
REV_AT_EPOCH   = 394
BSTAR          = .16774697E-2
MEAN_MOTION_DOT = .264723E-2
MEAN_MOTION_DDOT = 0

CCSDS_OMM_VERS = 2.0
CREATION_DATE  = 
ORIGINATOR     = 

OBJECT_NAME    = STARLINK-36945
OBJECT_ID      = 2026-041L
CENTER_NAME    = EARTH
REF_FRAME      = TEME
TIME_SYSTEM    = UTC
MEAN_ELEMENT_THEORY = SGP/SGP4

EPOCH          = 2026-03-26T22:00:01.999584
MEAN_MOTION    = 15.75261169
ECCENTRICITY   = .00011856
INCLINATION    = 53.1592
RA_OF_ASC_NODE = 335.7888
ARG_OF_PERICENTER = 98.1274
MEAN_ANOMALY   = 251.2179

EPHEMERIS_TYPE = 0
CLASSIFICATION_TYPE = U
NORAD_CAT_ID   = 68050
ELEMENT_SET_NO = 999
REV_AT_EPOCH   = 514
BSTAR          = -.34107561E-3
MEAN_MOTION_DOT = -.52648E-3
MEAN_MOTION_DDOT = 0

CCSDS_OMM_VERS = 2.0
CREATION_DATE  = 
ORIGINATOR     = 

OBJECT_NAME    = STARLINK-35911
OBJECT_ID      = 2026-041M
CENTER_NAME    = EARTH
REF_FRAME      = TEME
TIME_SYSTEM    = UTC
MEAN_ELEMENT_THEORY = SGP/SGP4

EPOCH          = 2026-03-26T22:00:01.999584
MEAN_MOTION    = 15.75250128
ECCENTRICITY   = .00011818
INCLINATION    = 53.1593
RA_OF_ASC_NODE = 335.7365
ARG_OF_PERICENTER = 118.9206
MEAN_ANOMALY   = 256.1844

EPHEMERIS_TYPE = 0
CLASSIFICATION_TYPE = U
NORAD_CAT_ID   = 68051
ELEMENT_SET_NO = 999
REV_AT_EPOCH   = 510
BSTAR          = -.25030713E-3
MEAN_MOTION_DOT = -.38851E-3
MEAN_MOTION_DDOT = 0

CCSDS_OMM_VERS = 2.0
CREATION_DATE  = 
ORIGINATOR     = 

OBJECT_NAME    = STARLINK-35808
OBJECT_ID      = 2026-041N
CENTER_NAME    = EARTH
REF_FRAME      = TEME
TIME_SYSTEM    = UTC
MEAN_ELEMENT_THEORY = SGP/SGP4

EPOCH          = 2026-03-26T22:22:22.340064
MEAN_MOTION    = 15.75303027
ECCENTRICITY   = .00027768
INCLINATION    = 53.1590
RA_OF_ASC_NODE = 335.8687
ARG_OF_PERICENTER = 7.3895
MEAN_ANOMALY   = 352.7165

EPHEMERIS_TYPE = 0
CLASSIFICATION_TYPE = U
NORAD_CAT_ID   = 68052
ELEMENT_SET_NO = 999
REV_AT_EPOCH   = 394
BSTAR          = .2740066E-2
MEAN_MOTION_DOT = .443384E-2
MEAN_MOTION_DDOT = 0

CCSDS_OMM_VERS = 2.0
CREATION_DATE  = 
ORIGINATOR     = 

OBJECT_NAME    = STARLINK-36919
OBJECT_ID      = 2026-041P
CENTER_NAME    = EARTH
REF_FRAME      = TEME
TIME_SYSTEM    = UTC
MEAN_ELEMENT_THEORY = SGP/SGP4

EPOCH          = 2026-03-26T21:51:20.221344
MEAN_MOTION    = 15.79677947
ECCENTRICITY   = .00050242
INCLINATION    = 53.1593
RA_OF_ASC_NODE = 335.7252
ARG_OF_PERICENTER = 335.0004
MEAN_ANOMALY   = 25.0775

EPHEMERIS_TYPE = 0
CLASSIFICATION_TYPE = U
NORAD_CAT_ID   = 68053
ELEMENT_SET_NO = 999
REV_AT_EPOCH   = 394
BSTAR          = -.10622776E-2
MEAN_MOTION_DOT = -.194969E-2
MEAN_MOTION_DDOT = 0

CCSDS_OMM_VERS = 2.0
CREATION_DATE  = 
ORIGINATOR     = 

OBJECT_NAME    = STARLINK-36924
OBJECT_ID      = 2026-041Q
CENTER_NAME    = EARTH
REF_FRAME      = TEME
TIME_SYSTEM    = UTC
MEAN_ELEMENT_THEORY = SGP/SGP4

EPOCH          = 2026-03-26T22:48:31.026240
MEAN_MOTION    = 15.75567007
ECCENTRICITY   = .00005863
INCLINATION    = 53.1617
RA_OF_ASC_NODE = 335.9904
ARG_OF_PERICENTER = 336.9213
MEAN_ANOMALY   = 23.1781

EPHEMERIS_TYPE = 0
CLASSIFICATION_TYPE = U
NORAD_CAT_ID   = 68054
ELEMENT_SET_NO = 999
REV_AT_EPOCH   = 394
BSTAR          = .30541338E-2
MEAN_MOTION_DOT = .503703E-2
MEAN_MOTION_DDOT = 0

CCSDS_OMM_VERS = 2.0
CREATION_DATE  = 
ORIGINATOR     = 

OBJECT_NAME    = STARLINK-35998
OBJECT_ID      = 2026-041R
CENTER_NAME    = EARTH
REF_FRAME      = TEME
TIME_SYSTEM    = UTC
MEAN_ELEMENT_THEORY = SGP/SGP4

EPOCH          = 2026-03-26T22:15:21.749184
MEAN_MOTION    = 15.75373564
ECCENTRICITY   = .00010182
INCLINATION    = 53.1595
RA_OF_ASC_NODE = 335.8359
ARG_OF_PERICENTER = 152.9138
MEAN_ANOMALY   = 207.1936

EPHEMERIS_TYPE = 0
CLASSIFICATION_TYPE = U
NORAD_CAT_ID   = 68055
ELEMENT_SET_NO = 999
REV_AT_EPOCH   = 394
BSTAR          = .20023438E-2
MEAN_MOTION_DOT = .320075E-2
MEAN_MOTION_DDOT = 0

CCSDS_OMM_VERS = 2.0
CREATION_DATE  = 
ORIGINATOR     = 

OBJECT_NAME    = STARLINK-36845
OBJECT_ID      = 2026-041S
CENTER_NAME    = EARTH
REF_FRAME      = TEME
TIME_SYSTEM    = UTC
MEAN_ELEMENT_THEORY = SGP/SGP4

EPOCH          = 2026-03-26T22:00:01.999584
MEAN_MOTION    = 15.75235190
ECCENTRICITY   = .00009403
INCLINATION    = 53.1592
RA_OF_ASC_NODE = 335.8376
ARG_OF_PERICENTER = 73.1972
MEAN_ANOMALY   = 252.2713

EPHEMERIS_TYPE = 0
CLASSIFICATION_TYPE = U
NORAD_CAT_ID   = 68056
ELEMENT_SET_NO = 999
REV_AT_EPOCH   = 514
BSTAR          = -.62924851E-4
MEAN_MOTION_DOT = -.10271E-3
MEAN_MOTION_DDOT = 0

