STARLINK-36864          
1 68045U 26041F   26085.70532518  .00390198  00000+0  24163-2 0  9995
2 68045  53.1598 337.3106 0000179 115.1919 244.9120 15.75403992  3902
STARLINK-36321          
1 68046U 26041G   26085.93187178  .00243024  00000+0  15377-2 0  9991
2 68046  53.1590 335.8676 0000685  60.9247 299.1842 15.75338544  3940
STARLINK-36181          
1 68047U 26041H   26085.91570485  .00237680  00000+0  11808-2 0  9993
2 68047  53.1590 335.7601 0003036 333.6995  26.3873 15.80760840  3949
STARLINK-36318          
1 68048U 26041J   26085.95489575  .00170825  00000+0  10931-2 0  9990
2 68048  53.1605 336.0220 0000944  47.1628 312.9471 15.75302675  3943
STARLINK-36885          
1 68049U 26041K   26085.95456815  .00264723  00000+0  16775-2 0  9995
2 68049  53.1612 336.0172 0001628  57.6150 302.5028 15.75240545  3944
STARLINK-36945          
1 68050U 26041L   26085.91668981 -.00052648  00000+0 -34108-3 0  9996
2 68050  53.1592 335.7888 0001185  98.1274 251.2179 15.75261169  5144
STARLINK-35911          
1 68051U 26041M   26085.91668981 -.00038851  00000+0 -25031-3 0  9992
2 68051  53.1593 335.7365 0001181 118.9206 256.1844 15.75250128  5100
STARLINK-35808          
1 68052U 26041N   26085.93220301  .00443384  00000+0  27401-2 0  9996
2 68052  53.1590 335.8687 0002776   7.3895 352.7165 15.75303027  3948
STARLINK-36919          
1 68053U 26041P   26085.91065071 -.00194969  00000+0 -10623-2 0  9998
2 68053  53.1593 335.7252 0005024 335.0004  25.0775 15.79677947  3947
STARLINK-36924          
1 68054U 26041Q   26085.95035910  .00503703  00000+0  30541-2 0  9991
2 68054  53.1617 335.9904 0000586 336.9213  23.1781 15.75567007  3948
STARLINK-35998          
1 68055U 26041R   26085.92733506  .00320075  00000+0  20023-2 0  9998
2 68055  53.1595 335.8359 0001018 152.9138 207.1936 15.75373564  3949
STARLINK-36845          
1 68056U 26041S   26085.91668981 -.00010271  00000+0 -62925-4 0  9997
2 68056  53.1592 335.8376 0000940  73.1972 252.2713 15.75235190  5149
